[{"OBJECT_NAME":"NUSAT-41 (C PAYNE-G)","OBJECT_ID":"2023-084N","EPOCH":"2026-03-09T21:55:54.837696","MEAN_MOTION":15.29680045,"ECCENTRICITY":0.00062175,"INCLINATION":97.5351,"RA_OF_ASC_NODE":204.1011,"ARG_OF_PERICENTER":322.2064,"MEAN_ANOMALY":37.8738,"EPHEMERIS_TYPE":0,"CLASSIFICATION_TYPE":"U","NORAD_CAT_ID":56944,"ELEMENT_SET_NO":999,"REV_AT_EPOCH":15260,"BSTAR":0.00059912824,"MEAN_MOTION_DOT":0.0001718,"MEAN_MOTION_DDOT":0},{"OBJECT_NAME":"STARLINK-35576","OBJECT_ID":"2025-237Z","EPOCH":"2026-03-09T03:51:28.979712","MEAN_MOTION":15.30216265,"ECCENTRICITY":0.0001302,"INCLINATION":53.1601,"RA_OF_ASC_NODE":41.7857,"ARG_OF_PERICENTER":116.5892,"MEAN_ANOMALY":243.5243,"EPHEMERIS_TYPE":0,"CLASSIFICATION_TYPE":"U","NORAD_CAT_ID":66137,"ELEMENT_SET_NO":999,"REV_AT_EPOCH":2253,"BSTAR":0.0011853456,"MEAN_MOTION_DOT":0.0003493,"MEAN_MOTION_DDOT":0}]
